{"fetched_at":"2026-03-30T06:02:59Z","count":15439,"tles":[{"name":"STARLINK-30198","line1":"1 57290U 23096A   26087.76281608  .00009145  00000+0  42460-3 0  9991","line2":"2 57290  42.9943 116.3695 0001324 287.7333  72.3371 15.20202384150523","category":"Starlink"}]}