{
  "norad_id": 57290,
  "name": "STARLINK-30198",
  "history": [
    {
      "epoch": "2026-03-28T18:18:27.309312Z",
      "apogee_km": 506.1413277749316,
      "perigee_km": 504.3179239557403,
      "latitude_deg": -9.810283820036737e-06,
      "longitude_deg": 15.577099025554258,
      "height_km": 504.72865648524487,
      "semi_major_axis_km": 6883.366625865336,
      "eccentricity": 0.00013245,
      "inclination_deg": 42.9943,
      "raan_deg": 116.3695,
      "arg_perigee_deg": 287.7333,
      "mean_anomaly_deg": 72.3371,
      "mean_motion_rev_day": 15.20202384
    }
  ]
}